GLOBALSTAR M023         
1 25621U 99004A   26019.66934206 -.00000023  00000+0  44836-3 0  9995
2 25621  52.0104 114.2420 0009390 242.7054 283.6903 12.62514514243077
GLOBALSTAR M040         
1 25622U 99004B   26019.53629669 -.00000117  00000+0 -74463-4 0  9991
2 25622  51.9924 119.1195 0001693 133.4504 239.9515 12.62026643242571
GLOBALSTAR M036         
1 25623U 99004C   26019.34836424 -.00000046  00000+0  53209-3 0  9994
2 25623  51.9987  30.5551 0010806 105.2100 268.1114 11.86616974204640
GLOBALSTAR M038         
1 25624U 99004D   26019.62505056 -.00000097  00000+0 -16786-4 0  9997
2 25624  51.9954 168.2477 0002752 128.6155 311.6318 12.32539391229063
GLOBALSTAR M022         
1 25649U 99012A   26019.54361319 -.00000052  00000+0  42390-3 0  9995
2 25649  52.0047  62.7405 0002607 229.8530 277.9923 12.02508799202404
GLOBALSTAR M041         
1 25650U 99012B   26019.55206359 -.00000042  00000+0  55796-3 0  9993
2 25650  52.0042 310.7679 0001820  39.1588 320.9380 11.96683061204182
GLOBALSTAR M046         
1 25651U 99012C   26019.20664023 -.00000115  00000+0 -29464-3 0  9997
2 25651  52.0079   5.9061 0001897 331.4118  41.8573 12.09418816209808
GLOBALSTAR M037         
1 25652U 99012D   26019.34191235 -.00000060  00000+0  24574-3 0  9998
2 25652  51.9984 245.7786 0001563 338.0868 193.7464 12.62459566238573
